QIANFAN-81              
1 63167U 25046J   25224.72760648  .00000174  00000+0  25037-3 0  9996
2 63167  88.9865 332.4495 0016739 113.1996 247.0920 13.50963233 31019
QIANFAN-82              
1 63168U 25046K   25224.68633835  .00000166  00000+0  23869-3 0  9991
2 63168  88.9864 332.4972 0014844 120.1490 240.1134 13.50960095 30991
QIANFAN-83              
1 63169U 25046L   25224.74231837  .00000204  00000+0  24926-3 0  9993
2 63169  88.9864 332.5067 0016184 112.8869 247.3999 13.61934962 30999
QIANFAN-84              
1 63170U 25046M   25224.71515525  .00000177  00000+0  25465-3 0  9999
2 63170  88.9865 332.6273 0017830 117.0555 243.2419 13.50967307 30922
QIANFAN-85              
1 63171U 25046N   25224.71114038  .00000175  00000+0  25257-3 0  9991
2 63171  88.9864 332.5000 0015199 119.1486 241.1188 13.50961177 30997
QIANFAN-86              
1 63172U 25046P   25224.71936477  .00000172  00000+0  24825-3 0  9998
2 63172  88.9866 332.3584 0013054 122.6045 237.6368 13.50961582 31073
QIANFAN-87              
1 63173U 25046Q   25224.69047114  .00000171  00000+0  24620-3 0  9999
2 63173  88.9862 332.4776 0013796 118.3770 241.8774 13.50958133 31003
QIANFAN-88              
1 63174U 25046R   25224.70708091  .00000180  00000+0  26052-3 0  9991
2 63174  88.9865 332.4275 0014115 125.3189 234.9284 13.50965664 31038
